     2.100          NAVIGATION                              RINEX VERSION / TYPE
fic2rin                                 12/12/2015 00:03:43 PGM / RUN BY / DATE
                                                            END OF HEADER
25 15 12 11 21 59 44.0 -.813314691186D-04 -.602540239925D-11  .000000000000D+00
     .000000000000D+00 -.482812500000D+02  .447482925174D-08 -.489584304466D+00
    -.256299972534D-05  .479992781766D-02  .648200511932D-06  .515358575630D+04
     .511184000000D+06  .167638063431D-07 -.125401499261D+01  .428408384323D-07
     .978342360115D+00  .373812500000D+03  .704095290086D+00 -.840606443204D-08
    -.228223792151D-09  .100000000000D+01  .187400000000D+04  .000000000000D+00
     .240000000000D+01  .000000000000D+00  .558793544769D-08  .000000000000D+00
     .506406000000D+06  .400000000000D+01
24 15 12 11 21 59 44.0 -.918470323086D-05 -.568434188608D-12  .000000000000D+00
     .200000000000D+01  .137812500000D+03  .470519599030D-08  .152989637913D+01
     .729411840439D-05  .389768544119D-02  .622682273388D-05  .515365192795D+04
     .511184000000D+06  .242143869400D-07 -.232247357308D+01  .113621354103D-06
     .951537537438D+00  .253156250000D+03  .306906542061D+00 -.827605901679D-08
     .162149611325D-09  .100000000000D+01  .187400000000D+04  .000000000000D+00
     .240000000000D+01  .000000000000D+00  .279396772385D-08  .200000000000D+01
     .508896000000D+06  .400000000000D+01
22 15 12 11 23 59 44.0  .418770126998D-03  .375166564481D-11  .000000000000D+00
     .500000000000D+01 -.123437500000D+02  .591774649789D-08 -.816105258608D+00
    -.495463609695D-06  .746734614950D-02  .443495810032D-05  .515510354805D+04
     .518384000000D+06 -.577419996262D-07  .186052292508D+01  .160187482834D-06
     .922295547369D+00  .273593750000D+03 -.202843351109D+01 -.877322258279D-08
    -.124648049234D-09  .100000000000D+01  .187400000000D+04  .000000000000D+00
     .240000000000D+01  .000000000000D+00 -.176951289177D-07  .500000000000D+01
     .511206000000D+06  .400000000000D+01
24 15 12 11 23 59 44.0 -.918889418244D-05 -.568434188608D-12  .000000000000D+00
     .200000000000D+02  .138875000000D+03  .465055085697D-08  .258007440988D+01
     .725686550140D-05  .389819731936D-02  .661052763462D-05  .515365158272D+04
     .518384000000D+06 -.122934579849D-06 -.232253343276D+01 -.447034835815D-07
     .951539625022D+00  .245906250000D+03  .306923823512D+00 -.813212444991D-08
     .277154401736D-09  .100000000000D+01  .187400000000D+04  .000000000000D+00
     .240000000000D+01  .000000000000D+00  .279396772385D-08  .200000000000D+02
     .511206000000D+06  .400000000000D+01
25 15 12 11 23 59 44.0 -.813752412796D-04 -.602540239925D-11  .000000000000D+00
     .190000000000D+02 -.324375000000D+02  .443447042778D-08  .560629343960D+00
    -.167451798916D-05  .480216869619D-02  .555068254471D-06  .515359002304D+04
     .518384000000D+06  .223517417908D-07 -.125407562179D+01  .335276126862D-07
     .978340698240D+00  .375062500000D+03  .704114610846D+00 -.841785063727D-08
    -.219652006531D-09  .100000000000D+01  .187400000000D+04  .000000000000D+00
     .240000000000D+01  .000000000000D+00  .558793544769D-08  .190000000000D+02
     .511206000000D+06  .400000000000D+01
 1 15 12 12  0  0  0.0  .643869861960D-05  .909494701773D-12  .000000000000D+00
     .106000000000D+03  .140000000000D+02  .440339770490D-08  .225942874102D+01
     .750645995140D-06  .487012637313D-02  .954978168011D-05  .515365473175D+04
     .518400000000D+06 -.726431608200D-07  .845525835865D+00  .149011611938D-07
     .963275509343D+00  .195312500000D+03  .492593964367D+00 -.782818321811D-08
     .696814739417D-09  .100000000000D+01  .187400000000D+04  .000000000000D+00
     .240000000000D+01  .000000000000D+00  .512227416039D-08  .106000000000D+03
     .511206000000D+06  .400000000000D+01
 2 15 12 12  0  0  0.0  .597700942308D-03  .682121026330D-12  .000000000000D+00
     .410000000000D+02  .459375000000D+01  .465626538071D-08  .282116298165D+01
     .229105353355D-06  .150795864174D-01  .987201929092D-05  .515368287086D+04
     .518400000000D+06  .596046447754D-07  .803629635131D+00 -.212341547012D-06
     .942016260930D+00  .175687500000D+03 -.220413189469D+01 -.771424990090D-08
     .667170647478D-09  .100000000000D+01  .187400000000D+04  .000000000000D+00
     .240000000000D+01  .000000000000D+00 -.204890966415D-07  .410000000000D+02
     .511206000000D+06  .400000000000D+01
 3 15 12 12  0  0  0.0  .352878123522D-05 -.511590769747D-11  .000000000000D+00
     .820000000000D+02 -.900000000000D+01  .501306595718D-08 -.144178929096D+01
    -.678002834320D-06  .389822409488D-03  .492110848427D-05  .515353224945D+04
     .518400000000D+06  .130385160446D-07  .188682595369D+01  .558793544769D-08
     .958712694186D+00  .282375000000D+03 -.310933916034D+01 -.819248410699D-08
    -.121076471892D-09  .100000000000D+01  .187400000000D+04  .000000000000D+00
     .340000000000D+01  .000000000000D+00  .186264514923D-08  .820000000000D+02
     .511206000000D+06  .400000000000D+01
 5 15 12 12  0  0  0.0 -.165959820151D-03  .363797880709D-11  .000000000000D+00
     .330000000000D+02 -.921875000000D+01  .531272129617D-08 -.104394537800D+01
    -.433996319771D-06  .457025656942D-02  .433064997196D-05  .515368297386D+04
     .518400000000D+06  .707805156708D-07  .187716710583D+01 -.130385160446D-07
     .945846781721D+00  .283031250000D+03  .482836116451D+00 -.841035032485D-08
    -.485734518507D-10  .100000000000D+01  .187400000000D+04  .000000000000D+00
     .240000000000D+01  .000000000000D+00 -.107102096081D-07  .330000000000D+02
     .511206000000D+06  .400000000000D+01
 6 15 12 12  0  0  0.0  .110578723252D-03  .648014975013D-11  .000000000000D+00
     .810000000000D+02  .365625000000D+01  .433875215501D-08 -.205416563446D+01
     .298023223877D-06  .230460893363D-03  .955350697041D-05  .515359496117D+04
     .518400000000D+06  .130385160446D-07  .837069671975D+00 -.130385160446D-07
     .963140122126D+00  .195687500000D+03 -.304424377942D+01 -.778103839720D-08
     .664670543339D-09  .100000000000D+01  .187400000000D+04  .000000000000D+00
     .240000000000D+01  .000000000000D+00  .419095158577D-08  .810000000000D+02
     .511206000000D+06  .400000000000D+01
 7 15 12 12  0  0  0.0  .477675348520D-03 -.125055521494D-11  .000000000000D+00
     .350000000000D+02  .144156250000D+03  .439732602342D-08  .158927904447D+01
     .756420195103D-05  .899148033932D-02  .679306685925D-05  .515369274139D+04
     .518400000000D+06 -.577419996262D-07 -.227825267117D+01  .152736902237D-06
     .968374064118D+00  .254000000000D+03 -.267881719190D+01 -.818391232137D-08
     .222509268404D-09  .100000000000D+01  .187400000000D+04  .000000000000D+00
     .240000000000D+01  .000000000000D+00 -.111758708954D-07  .350000000000D+02
     .511206000000D+06  .400000000000D+01
 8 15 12 12  0  0  0.0 -.158445909619D-04 -.147792889038D-11  .000000000000D+00
     .300000000000D+02 -.130468750000D+03  .414874424042D-08 -.494586000898D+00
    -.670738518238D-05  .161866273265D-02  .100452452898D-04  .515362349892D+04
     .518400000000D+06 -.931322574615D-08 -.212848412871D+00  .875443220139D-07
     .961830323294D+00  .187375000000D+03 -.160079559202D+01 -.788497129785D-08
    -.111433213069D-09  .100000000000D+01  .187400000000D+04  .000000000000D+00
     .240000000000D+01  .000000000000D+00  .465661287308D-08  .300000000000D+02
     .511206000000D+06  .400000000000D+01
 9 15 12 12  0  0  0.0  .266083516181D-04  .784439180279D-11  .000000000000D+00
     .150000000000D+02  .227812500000D+02  .453518890882D-08 -.195807832086D+01
     .122562050819D-05  .472882762551D-03  .115968286991D-04  .515367990685D+04
     .518400000000D+06  .186264514923D-07  .292792812115D+01 -.391155481339D-07
     .956389448614D+00  .155593750000D+03  .197328523726D+01 -.782854037584D-08
    -.500735143343D-09  .100000000000D+01  .187400000000D+04  .000000000000D+00
     .240000000000D+01  .000000000000D+00  .931322574615D-09  .150000000000D+02
     .511206000000D+06  .400000000000D+01
10 15 12 12  0  0  0.0  .410000793636D-04  .613908923697D-11  .000000000000D+00
     .380000000000D+02 -.139062500000D+02  .500520848702D-08  .222031310575D+00
    -.720843672752D-06  .889486400411D-03  .481121242046D-05  .515367656517D+04
     .518400000000D+06 -.298023223877D-07  .188267806160D+01  .186264514923D-07
     .958984941778D+00  .285687500000D+03 -.295944285686D+01 -.822712840721D-08
    -.160363822654D-09  .100000000000D+01  .187400000000D+04  .000000000000D+00
     .240000000000D+01  .000000000000D+00  .325962901115D-08  .380000000000D+02
     .511206000000D+06  .400000000000D+01
11 15 12 12  0  0  0.0 -.621223356575D-03 -.216004991671D-11  .000000000000D+00
     .101000000000D+03 -.321875000000D+02  .570845206566D-08  .169883438275D+01
    -.184588134289D-05  .162450476782D-01  .114589929581D-04  .515364496422D+04
     .518400000000D+06  .577419996262D-07  .480551683558D+00 -.396743416786D-06
     .895214632551D+00  .122312500000D+03  .148804938364D+01 -.842606526515D-08
     .575381109790D-09  .100000000000D+01  .187400000000D+04  .000000000000D+00
     .240000000000D+01  .000000000000D+00 -.121071934700D-07  .101000000000D+03
     .511206000000D+06  .400000000000D+01
12 15 12 12  0  0  0.0  .352565199137D-03  .295585778076D-11  .000000000000D+00
     .720000000000D+02 -.423437500000D+02  .415195866003D-08  .118962220150D+01
    -.226125121117D-05  .560062192380D-02  .840052962303D-06  .515356337357D+04
     .518400000000D+06 -.931322574615D-08 -.120511288597D+01  .856816768646D-07
     .989995074617D+00  .377875000000D+03  .640082572408D+00 -.823891461244D-08
    -.245367363393D-09  .100000000000D+01  .187400000000D+04  .000000000000D+00
     .240000000000D+01  .000000000000D+00 -.125728547573D-07  .720000000000D+02
     .511206000000D+06  .400000000000D+01
